[
    {
        "Altitude(m)": 607886.732689889,
        "Argument of Periapsis(deg)": 0.0,
        "Eccentricity": 0.0,
        "Inclination(deg)": 60.0,
        "Latitude(deg)": 40.99855536228837,
        "Longitude(deg)": 54.97288557553433,
        "Mean Anomaly(deg)": 49.09089999999999,
        "RAAN(deg)": 125.00000000000001,
        "Satellite Name": "Test1 553",
        "Satellite Number": 553,
        "Semi-Major Axis(m)": 6980739.136638005,
        "Time(s)": 0
    },
    {
        "Altitude(m)": 607987.6471743224,
        "Argument of Periapsis(deg)": 0.00010418945913296404,
        "Eccentricity": 0.0,
        "Inclination(deg)": 60.0,
        "Latitude(deg)": 41.46364638107545,
        "Longitude(deg)": 55.47711276189225,
        "Mean Anomaly(deg)": 49.71100614546182,
        "RAAN(deg)": 124.99957995086027,
        "Satellite Name": "Test1 553",
        "Satellite Number": 553,
        "Semi-Major Axis(m)": 6980739.136638005,
        "Time(s)": 10
    }
]